{"type": "FeatureCollection", "features": [ {"type": "Feature", "properties": {"norad_id": 28649, "name": "IRS-P5 (CARTOSAT-1)", "group": "resource", "lat": -16.159269818794463, "lon": 12.602372765268417, "alt_km": 601.1352798419539, "timestamp": "2025-12-09T20:37:08.938160+00:00", "meta": {"OBJECT_NAME": "IRS-P5 (CARTOSAT-1)", "OBJECT_ID": "2005-017A", "EPOCH": "2025-12-09T12:38:07.937664", "MEAN_MOTION": 14.90388486, "ECCENTRICITY": 0.00014229, "INCLINATION": 97.5497, "RA_OF_ASC_NODE": 10.0821, "ARG_OF_PERICENTER": 46.8358, "MEAN_ANOMALY": 313.2979, "EPHEMERIS_TYPE": 0, "CLASSIFICATION_TYPE": "U", "NORAD_CAT_ID": 28649, "ELEMENT_SET_NO": 999, "REV_AT_EPOCH": 11556, "BSTAR": 0.00024802754, "MEAN_MOTION_DOT": 2.362e-05, "MEAN_MOTION_DDOT": 0}, "tle": {"line1": "1 28649U 05017A   25343.52648076  .00002362  00000+0  24803-3 0  9999", "line2": "2 28649  97.5497  10.0821 0001422  46.8358 313.2979 14.90388486115560"}}, "geometry": {"type": "Point", "coordinates": [12.602372765268417, -16.159269818794463]}}, {"type": "Feature", "properties": {"norad_id": 28893, "name": "SINAH 1", "group": "resource", "lat": -69.35578322288866, "lon": -90.27137799635511, "alt_km": 690.5345717151931, "timestamp": "2025-12-09T20:37:08.938174+00:00", "meta": {"OBJECT_NAME": "SINAH 1", "OBJECT_ID": "2005-043D", "EPOCH": "2025-12-09T14:33:22.411296", "MEAN_MOTION": 14.63957482, "ECCENTRICITY": 0.00151902, "INCLINATION": 98.2602, "RA_OF_ASC_NODE": 112.1554, "ARG_OF_PERICENTER": 146.2875, "MEAN_ANOMALY": 213.9296, "EPHEMERIS_TYPE": 0, "CLASSIFICATION_TYPE": "U", "NORAD_CAT_ID": 28893, "ELEMENT_SET_NO": 999, "REV_AT_EPOCH": 7278, "BSTAR": 0.00018583277, "MEAN_MOTION_DOT": 9.25e-06, "MEAN_MOTION_DDOT": 0}, "tle": {"line1": "1 28893U 05043D   25343.60650939  .00000925  00000+0  18583-3 0  9990", "line2": "2 28893  98.2602 112.1554 0015190 146.2875 213.9296 14.63957482 72782"}}, "geometry": {"type": "Point", "coordinates": [-90.27137799635511, -69.35578322288866]}}, {"type": "Feature", "properties": {"norad_id": 29079, "name": "EROS B", "group": "resource", "lat": -81.79660107654202, "lon": -143.22434165843197, "alt_km": 373.6028786140423, "timestamp": "2025-12-09T20:37:08.938186+00:00", "meta": {"OBJECT_NAME": "EROS B", "OBJECT_ID": "2006-014A", "EPOCH": "2025-12-09T14:53:16.528416", "MEAN_MOTION": 15.66972859, "ECCENTRICITY": 0.00016472, "INCLINATION": 97.3476, "RA_OF_ASC_NODE": 100.0482, "ARG_OF_PERICENTER": 285.3806, "MEAN_ANOMALY": 74.7273, "EPHEMERIS_TYPE": 0, "CLASSIFICATION_TYPE": "U", "NORAD_CAT_ID": 29079, "ELEMENT_SET_NO": 999, "REV_AT_EPOCH": 9031, "BSTAR": 0.0017614011, "MEAN_MOTION_DOT": 0.00190727, "MEAN_MOTION_DDOT": 0}, "tle": {"line1": "1 29079U 06014A   25343.62033019  .00190727  00000+0  17614-2 0  9995", "line2": "2 29079  97.3476 100.0482 0001647 285.3806  74.7273 15.66972859 90311"}}, "geometry": {"type": "Point", "coordinates": [-143.22434165843197, -81.79660107654202]}}, {"type": "Feature", "properties": {"norad_id": 29228, "name": "RESURS-DK 1", "group": "resource", "lat": 27.950897637669854, "lon": 120.46647144633856, "alt_km": 531.1593385214264, "timestamp": "2025-12-09T20:37:08.938197+00:00", "meta": {"OBJECT_NAME": "RESURS-DK 1", "OBJECT_ID": "2006-021A", "EPOCH": "2025-12-09T12:32:56.666112", "MEAN_MOTION": 15.12133903, "ECCENTRICITY": 0.00075461, "INCLINATION": 69.9337, "RA_OF_ASC_NODE": 110.1512, "ARG_OF_PERICENTER": 262.0089, "MEAN_ANOMALY": 98.022, "EPHEMERIS_TYPE": 0, "CLASSIFICATION_TYPE": "U", "NORAD_CAT_ID": 29228, "ELEMENT_SET_NO": 999, "REV_AT_EPOCH": 7389, "BSTAR": 0.00026304844, "MEAN_MOTION_DOT": 4.441e-05, "MEAN_MOTION_DDOT": 0}, "tle": {"line1": "1 29228U 06021A   25343.52287808  .00004441  00000+0  26305-3 0  9990", "line2": "2 29228  69.9337 110.1512 0007546 262.0089  98.0220 15.12133903 73898"}}, "geometry": {"type": "Point", "coordinates": [120.46647144633856, 27.950897637669854]}}, {"type": "Feature", "properties": {"norad_id": 29268, "name": "ARIRANG-2 (KOMPSAT-2)", "group": "resource", "lat": 28.7595510716862, "lon": -3.1986060355400068, "alt_km": 686.8285114525925, "timestamp": "2025-12-09T20:37:08.938209+00:00", "meta": {"OBJECT_NAME": "ARIRANG-2 (KOMPSAT-2)", "OBJECT_ID": "2006-031A", "EPOCH": "2025-12-09T15:25:40.099872", "MEAN_MOTION": 14.64488935, "ECCENTRICITY": 0.00136517, "INCLINATION": 97.8259, "RA_OF_ASC_NODE": 172.2667, "ARG_OF_PERICENTER": 319.7131, "MEAN_ANOMALY": 131.4493, "EPHEMERIS_TYPE": 0, "CLASSIFICATION_TYPE": "U", "NORAD_CAT_ID": 29268, "ELEMENT_SET_NO": 999, "REV_AT_EPOCH": 3373, "BSTAR": 0.00010064044, "MEAN_MOTION_DOT": 4.89e-06, "MEAN_MOTION_DDOT": 0}, "tle": {"line1": "1 29268U 06031A   25343.64282523  .00000489  00000+0  10064-3 0  9990", "line2": "2 29268  97.8259 172.2667 0013651 319.7131 131.4493 14.64488935 33734"}}, "geometry": {"type": "Point", "coordinates": [-3.1986060355400068, 28.7595510716862]}}, {"type": "Feature", "properties": {"norad_id": 29709, "name": "LAPAN-TUBSAT", "group": "resource", "lat": -45.69055023504716, "lon": 145.54051006704407, "alt_km": 625.9850424974129, "timestamp": "2025-12-09T20:37:08.938220+00:00", "meta": {"OBJECT_NAME": "LAPAN-TUBSAT", "OBJECT_ID": "2007-001A", "EPOCH": "2025-12-09T14:45:21.248928", "MEAN_MOTION": 14.85665591, "ECCENTRICITY": 0.00137137, "INCLINATION": 98.1254, "RA_OF_ASC_NODE": 333.707, "ARG_OF_PERICENTER": 83.2814, "MEAN_ANOMALY": 276.996, "EPHEMERIS_TYPE": 0, "CLASSIFICATION_TYPE": "U", "NORAD_CAT_ID": 29709, "ELEMENT_SET_NO": 999, "REV_AT_EPOCH": 2300, "BSTAR": 0.00019876696, "MEAN_MOTION_DOT": 1.668e-05, "MEAN_MOTION_DDOT": 0}, "tle": {"line1": "1 29709U 07001A   25343.61482927  .00001668  00000+0  19877-3 0  9996", "line2": "2 29709  98.1254 333.7070 0013713  83.2814 276.9960 14.85665591 23006"}}, "geometry": {"type": "Point", "coordinates": [145.54051006704407, -45.69055023504716]}}, {"type": "Feature", "properties": {"norad_id": 31113, "name": "HAIYANG-1B", "group": "resource", "lat": -41.93956333604433, "lon": -24.178287570804493, "alt_km": 794.7691997445299, "timestamp": "2025-12-09T20:37:08.938231+00:00", "meta": {"OBJECT_NAME": "HAIYANG-1B", "OBJECT_ID": "2007-010A", "EPOCH": "2025-12-09T12:25:34.853664", "MEAN_MOTION": 14.30963435, "ECCENTRICITY": 0.00144, "INCLINATION": 98.3311, "RA_OF_ASC_NODE": 327.929, "ARG_OF_PERICENTER": 46.9452, "MEAN_ANOMALY": 313.2934, "EPHEMERIS_TYPE": 0, "CLASSIFICATION_TYPE": "U", "NORAD_CAT_ID": 31113, "ELEMENT_SET_NO": 999, "REV_AT_EPOCH": 97350, "BSTAR": 0.0001049129, "MEAN_MOTION_DOT": 2.35e-06, "MEAN_MOTION_DDOT": 0}, "tle": {"line1": "1 31113U 07010A   25343.51776451  .00000235  00000+0  10491-3 0  9997", "line2": "2 31113  98.3311 327.9290 0014400  46.9452 313.2934 14.30963435973504"}}, "geometry": {"type": "Point", "coordinates": [-24.178287570804493, -41.93956333604433]}}, {"type": "Feature", "properties": {"norad_id": 31598, "name": "COSMO-SKYMED 1", "group": "resource", "lat": 75.51910664163232, "lon": 136.79262594887422, "alt_km": 572.2167276543723, "timestamp": "2025-12-09T20:37:08.938242+00:00", "meta": {"OBJECT_NAME": "COSMO-SKYMED 1", "OBJECT_ID": "2007-023A", "EPOCH": "2025-12-09T13:51:01.211040", "MEAN_MOTION": 14.95727092, "ECCENTRICITY": 0.00010484, "INCLINATION": 97.8835, "RA_OF_ASC_NODE": 168.9559, "ARG_OF_PERICENTER": 83.3392, "MEAN_ANOMALY": 276.7948, "EPHEMERIS_TYPE": 0, "CLASSIFICATION_TYPE": "U", "NORAD_CAT_ID": 31598, "ELEMENT_SET_NO": 999, "REV_AT_EPOCH": 143, "BSTAR": 0.00052481854, "MEAN_MOTION_DOT": 5.788e-05, "MEAN_MOTION_DDOT": 0}, "tle": {"line1": "1 31598U 07023A   25343.57709735  .00005788  00000+0  52482-3 0  9999", "line2": "2 31598  97.8835 168.9559 0001048  83.3392 276.7948 14.95727092  1439"}}, "geometry": {"type": "Point", "coordinates": [136.79262594887422, 75.51910664163232]}}, {"type": "Feature", "properties": {"norad_id": 31698, "name": "TERRASAR-X", "group": "resource", "lat": -31.294887494048698, "lon": 164.7225510671169, "alt_km": 515.3196832188805, "timestamp": "2025-12-09T20:37:08.938252+00:00", "meta": {"OBJECT_NAME": "TERRASAR-X", "OBJECT_ID": "2007-026A", "EPOCH": "2025-12-09T11:47:13.204320", "MEAN_MOTION": 15.19146544, "ECCENTRICITY": 0.00019615, "INCLINATION": 97.4451, "RA_OF_ASC_NODE": 348.9193, "ARG_OF_PERICENTER": 86.8081, "MEAN_ANOMALY": 273.3378, "EPHEMERIS_TYPE": 0, "CLASSIFICATION_TYPE": "U", "NORAD_CAT_ID": 31698, "ELEMENT_SET_NO": 999, "REV_AT_EPOCH": 2442, "BSTAR": 0.00012751416, "MEAN_MOTION_DOT": 2.611e-05, "MEAN_MOTION_DDOT": 0}, "tle": {"line1": "1 31698U 07026A   25343.49112505  .00002611  00000+0  12751-3 0  9994", "line2": "2 31698  97.4451 348.9193 0001961  86.8081 273.3378 15.19146544 24429"}}, "geometry": {"type": "Point", "coordinates": [164.7225510671169, -31.294887494048698]}}, {"type": "Feature", "properties": {"norad_id": 32060, "name": "WORLDVIEW-1 (WV-1)", "group": "resource", "lat": 23.83865226897716, "lon": -75.33428125913525, "alt_km": 491.1968928789929, "timestamp": "2025-12-09T20:37:08.938263+00:00", "meta": {"OBJECT_NAME": "WORLDVIEW-1 (WV-1)", "OBJECT_ID": "2007-041A", "EPOCH": "2025-12-09T15:12:44.338464", "MEAN_MOTION": 15.24606396, "ECCENTRICITY": 7.346e-05, "INCLINATION": 97.3838, "RA_OF_ASC_NODE": 101.1588, "ARG_OF_PERICENTER": 103.996, "MEAN_ANOMALY": 256.136, "EPHEMERIS_TYPE": 0, "CLASSIFICATION_TYPE": "U", "NORAD_CAT_ID": 32060, "ELEMENT_SET_NO": 999, "REV_AT_EPOCH": 1400, "BSTAR": 0.00047792291, "MEAN_MOTION_DOT": 0.00011724, "MEAN_MOTION_DDOT": 0}, "tle": {"line1": "1 32060U 07041A   25343.63384651  .00011724  00000+0  47792-3 0  9992", "line2": "2 32060  97.3838 101.1588 0000734 103.9960 256.1360 15.24606396 14007"}}, "geometry": {"type": "Point", "coordinates": [-75.33428125913525, 23.83865226897716]}}]}